UNKNOWN                 
1 87557U          25336.80948102  .00006180  00000+0  13647-1 0  9999
2 87557 101.7166 190.9597 0067840  24.2835 336.1452 13.27623489563716
UNKNOWN                 
1 87561U          25328.11262889  .00000022  00000+0  51925-3 0  9992
2 87561 102.0131  26.1651 0173943 327.1787  60.0517 12.32152378540147
UNKNOWN                 
1 87565U          25336.20453468  .00001475  00000+0  81637-3 0  9996
2 87565  99.9476 326.7882 0171672 199.3533 160.1059 14.05956757614956
UNKNOWN                 
1 87569U          25336.45348155 -.00000021  00000+0  14201-3 0  9993
2 87569 101.9881 153.4115 0055538 273.5782 115.2589 12.68540377557163
UNKNOWN                 
1 87587U          25325.81110090  .00000253  00000+0  88340-4 0  9998
2 87587  74.0224 141.5957 0020431 185.9413 174.1503 14.40041221630794
UNKNOWN                 
1 87590U          25337.06817903  .00000764  00000+0  45360-3 0  9990
2 87590  98.7885  14.4031 0025987 311.4342  78.7710 14.10305378152884
UNKNOWN                 
1 87616U          25336.00081455  .00000421  00000+0  15843-2 0  9999
2 87616  66.0341 169.6820 0633830 143.6568   8.8853 12.46878095534899
UNKNOWN                 
1 87624U          25338.27635774  .00015488  00000+0  24147-2 0  9994
2 87624  98.6797 275.1736 0096980 275.2984  83.7161 14.69860868579031
UNKNOWN                 
1 87650U          25332.22926079  .00013074  00000+0  26480-2 0  9994
2 87650 100.2695 144.0175 0033059 322.6319  37.2575 14.61100605 77646
UNKNOWN                 
1 87672U          25335.14842343  .00002689  00000+0  10853-2 0  9990
2 87672  70.8584  31.7094 0063337 289.9726  69.4588 14.27758475622801
UNKNOWN                 
1 87681U          25332.85466267  .00001389  00000+0  14971-2 0  9993
2 87681  66.7345 131.5658 0157299 171.7213 188.6508 13.71058566599930
UNKNOWN                 
1 87690U          25338.49526814  .00008321  00000+0  12685-2 0  9997
2 87690  65.7952  15.4429 0578301  51.7722 313.3968 14.00276023606223
UNKNOWN                 
1 87706U          25337.46632906  .00006618  00000+0  11688-2 0  9990
2 87706  98.6722 160.5538 0104815 296.7908  92.5221 14.64245211577169
UNKNOWN                 
1 87725U          25336.23717805  .00072002  00000+0  64698-2 0  9996
2 87725  82.8670 265.4382 0019922  79.3362 281.0102 14.95186099632350
UNKNOWN                 
1 87730U          25338.43676491  .00000160  00000+0  15216-3 0  9990
2 87730  82.9457 240.2426 0030794  29.1223 331.1642 13.74503454584197
UNKNOWN                 
1 87737U          25336.93287207  .00000059  00000+0  10583-3 0  9992
2 87737  99.3751 208.9436 0132590 215.0557 144.1810 13.72338551602516
UNKNOWN                 
1 87764U          25337.35651422  .00011965  00000+0  20304-2 0  9992
2 87764  65.6713 188.2887 0360690  81.7792  86.5651 14.34596002617775
UNKNOWN                 
1 87771U          25327.50682115  .00000107  00000+0  37032-3 0  9992
2 87771 100.7440 163.2537 0119849  45.8847 315.2052 13.19509469532558
UNKNOWN                 
1 87782U          25338.38031897  .00004274  00000+0  14196-1 0  9990
2 87782 102.3385 208.8767 0055772 263.5563  95.9181 13.00357232566905
UNKNOWN                 
1 87843U          25333.08501501  .00002189  00000+0  50762-2 0  9997
2 87843  99.6612  88.3845 0232934  37.8196 323.9035 13.16477533562365
UNKNOWN                 
1 87845U          25322.15765395  .00002048  00000+0  38823-2 0  9996
2 87845  98.8519 284.4773 0576836 310.4581  44.7565 12.88841326562047
UNKNOWN                 
1 87878U          25329.13464671  .00004508  00000+0  14211-2 0  9998
2 87878  99.1571  87.3941 0034791 317.6102  42.2398 14.40517621608764
UNKNOWN                 
1 87884U          25336.25687777  .00000126  00000+0  91357-4 0  9990
2 87884  98.7351  80.4697 0154806  97.8095 264.0679 14.05976059616896
UNKNOWN                 
1 87991U          25337.17533384  .00005708  00000+0  11619-1 0  9996
2 87991  28.6250 300.2676 0884388 333.5444  22.2419 12.34984467521813
UNKNOWN                 
1 87998U          25337.76078370  .00001302  00000+0  73650-3 0  9998
2 87998  98.5972 343.8319 0025639 270.5850  89.2384 14.11656049547632
UNKNOWN                 
1 89003U          25319.55414108  .00000717  00000+0  25466-3 0  9998
2 89003  74.0493  64.4739 0014016 133.4339 226.7983 14.36170170627642
UNKNOWN                 
1 89005U          25337.33001954  .00002959  00000+0  67687-3 0  9998
2 89005  97.8388 167.1803 0192913  60.7356 301.2970 14.45496478532739
UNKNOWN                 
1 89029U          25337.99720654  .00012798  00000+0  11911-2 0  9991
2 89029  98.0499 237.0242 0022929 357.9469   2.1652 14.94244609649778
UNKNOWN                 
1 89101U          25336.66211581  .00000469  00000+0  15226-2 0  9994
2 89101 100.4634 273.6840 0147080 130.1763 231.2327 13.04006956553535
UNKNOWN                 
1 89132U          25336.26064861  .00004109  00000+0  55079-2 0  9996
2 89132  63.4259  62.6050 2932917 319.5946  21.9764  8.86371089324180
UNKNOWN                 
1 89146U          25338.02823047  .00008735  00000+0  16076-2 0  9999
2 89146  98.2472 266.7550 0095083  82.4800 278.7191 14.62912920627602
UNKNOWN                 
1 89161U          25337.77660251  .00112307  00000+0  29169-2 0  9991
2 89161  97.6575 353.0847 0041111  94.1798 266.4146 15.37660075547209
UNKNOWN                 
1 89172U          25332.98760542  .00016958  00000+0  27689-2 0  9995
2 89172  82.0647 234.8471 0294211 324.0687  34.1028 14.45939828599907
UNKNOWN                 
1 89177U          25332.60405141  .00000117  00000+0  10844-3 0  9996
2 89177  82.9201 279.5997 0032265 179.4907 180.6287 13.73722918 60886
UNKNOWN                 
1 89183U          25337.20147857  .00000613  00000+0  57733-3 0  9990
2 89183  99.2172 248.4969 0129697 181.7890 178.2816 13.81565445605658
UNKNOWN                 
1 89184U          25338.37089450  .00067503  00000+0  87531-2 0  9993
2 89184  98.3895 202.7135 0008416 145.9691 214.2061 14.80418723490937
UNKNOWN                 
1 89213U          25334.11872443  .00000346  00000+0  24639-3 0  9999
2 89213  98.7799 207.9253 0227667 160.9581 200.0267 13.91568480450913
UNKNOWN                 
1 89251U          25338.48874812  .00021357  00000+0  12562-1 0  9992
2 89251  62.4783  14.2193 2834277  99.9073 292.9409  9.24471993372428
UNKNOWN                 
1 89261U          25335.73008671  .00001020  00000+0  31627-3 0  9990
2 89261  98.1534 330.6178 0012583 187.3541 172.7467 14.43078198532227
UNKNOWN                 
1 89304U          25338.65021096  .00026411  00000+0  33948-1 0  9995
2 89304  84.3364 106.1463 2844249 356.2066   8.8658  9.03063279437677
UNKNOWN                 
1 89349U          25337.49917604 -.00000068  00000+0 -26320-3 0  9994
2 89349  90.2445   7.1463 0028037 290.5865  69.2248 12.96240087477553
UNKNOWN                 
1 89379U          25337.75483193  .00005625  00000+0  72407-2 0  9995
2 89379 100.4857 352.3599 0044400 151.7073 208.6490 13.62594501579551
UNKNOWN                 
1 89395U          25330.43006770  .00000100  00000+0  16005-2 0  9998
2 89395 102.3682 299.5856 0221848 152.7477   0.1865 12.01514817522784
UNKNOWN                 
1 89403U          25331.07240356  .00000312  00000+0  10301-2 0  9997
2 89403  90.2483   5.4537 0027495 255.8445 133.0686 12.98727264475793
UNKNOWN                 
1 89484U          25338.46748702  .00075203  00000+0  57103-1 0  9995
2 89484  84.0810 157.0909 2858583  37.6668 339.3609  9.13884250354681
UNKNOWN                 
1 89493U          25334.64301458  .00002750  00000+0  13677-2 0  9990
2 89493  99.0280  43.3463 0081658  75.3205 285.7002 14.16161642462239
UNKNOWN                 
1 89494U          25338.65348462  .00005588  00000+0  27566-2 0  9996
2 89494  99.0287  47.2983 0081760  63.9799 296.9765 14.16129144462659
